STARLINK-30427          
1 57865U 23144B   26067.67654380  .00000036  00000+0  10830-4 0  9999
2 57865  43.0007 290.8198 0001476 234.3471 125.7243 15.27578133137441
FLOCK 4G-36             
1 62675U 25009BU  26068.70726311  .00013573  00000+0  51122-3 0  9993
2 62675  97.4053 151.0513 0003474 324.2456  35.8550 15.27209548 63701
